SPAWAR-CAL-OR           
1 43778U 18099W   26068.67659123  .00011389  00000+0  50868-3 0  9998
2 43778  97.3939 118.6375 0010419 310.1337  49.8986 15.21464282397519
TOMORROW-S9             
1 66309U 25248S   26068.03677862  .00006428  00000+0  31245-3 0  9993
2 66309  45.4048 298.2875 0003704 215.4557 144.6083 15.19245570 19279
