[{"OBJECT_NAME":"SPAWAR-CAL-OR","OBJECT_ID":"2018-099W","EPOCH":"2026-03-09T16:14:17.483136","MEAN_MOTION":15.21464282,"ECCENTRICITY":0.00104186,"INCLINATION":97.3939,"RA_OF_ASC_NODE":118.6375,"ARG_OF_PERICENTER":310.1337,"MEAN_ANOMALY":49.8986,"EPHEMERIS_TYPE":0,"CLASSIFICATION_TYPE":"U","NORAD_CAT_ID":43778,"ELEMENT_SET_NO":999,"REV_AT_EPOCH":39751,"BSTAR":0.00050868189,"MEAN_MOTION_DOT":0.00011389,"MEAN_MOTION_DDOT":0},{"OBJECT_NAME":"TOMORROW-S9","OBJECT_ID":"2025-248S","EPOCH":"2026-03-09T00:52:57.672768","MEAN_MOTION":15.1924557,"ECCENTRICITY":0.00037045,"INCLINATION":45.4048,"RA_OF_ASC_NODE":298.2875,"ARG_OF_PERICENTER":215.4557,"MEAN_ANOMALY":144.6083,"EPHEMERIS_TYPE":0,"CLASSIFICATION_TYPE":"U","NORAD_CAT_ID":66309,"ELEMENT_SET_NO":999,"REV_AT_EPOCH":1927,"BSTAR":0.00031245466,"MEAN_MOTION_DOT":6.428e-5,"MEAN_MOTION_DDOT":0}]
